ONEWEB-0707             
1 61612U 24188U   26014.51120004  .00000673  00000+0  18913-2 0  9994
2 61612  87.8786  66.8827 0001710 119.5123 240.6175 13.10373311 63197
ONEWEB-0708             
1 61613U 24188V   26014.52945132  .00000219  00000+0  59052-3 0  9999
2 61613  87.8775  66.9112 0002349 108.8331 251.3051 13.10370587 63177
